{
  "norad_id": 61541,
  "name": "STARLINK-11357 [DTC]",
  "history": [
    {
      "epoch": "2026-03-28T20:35:17.261088Z",
      "apogee_km": 360.4671564964028,
      "perigee_km": 359.1295415709119,
      "latitude_deg": 1.3192772613649406e-05,
      "longitude_deg": 6.989028342943534,
      "height_km": 360.984197885785,
      "semi_major_axis_km": 6737.935349033657,
      "eccentricity": 9.926e-05,
      "inclination_deg": 53.1594,
      "raan_deg": 142.0832,
      "arg_perigee_deg": 113.9988,
      "mean_anomaly_deg": 246.1134,
      "mean_motion_rev_day": 15.6968498
    },
    {
      "epoch": "2026-03-29T08:48:43.083648Z",
      "apogee_km": 360.74737403731524,
      "perigee_km": 358.6046147488396,
      "latitude_deg": 9.319770776565477e-06,
      "longitude_deg": -179.38178366499116,
      "height_km": 361.0187110855335,
      "semi_major_axis_km": 6737.812994393077,
      "eccentricity": 0.00015901,
      "inclination_deg": 53.1582,
      "raan_deg": 139.572,
      "arg_perigee_deg": 113.6479,
      "mean_anomaly_deg": 246.4706,
      "mean_motion_rev_day": 15.69727737
    }
  ]
}